[{"OBJECT_NAME":"STARLINK-31873","OBJECT_ID":"2024-093J","EPOCH":"2026-03-09T11:17:49.249824","MEAN_MOTION":15.27574181,"ECCENTRICITY":0.00013789,"INCLINATION":43.0001,"RA_OF_ASC_NODE":209.9834,"ARG_OF_PERICENTER":261.3133,"MEAN_ANOMALY":98.7563,"EPHEMERIS_TYPE":0,"CLASSIFICATION_TYPE":"U","NORAD_CAT_ID":59790,"ELEMENT_SET_NO":999,"REV_AT_EPOCH":10266,"BSTAR":-9.851285e-6,"MEAN_MOTION_DOT":-5.33e-6,"MEAN_MOTION_DDOT":0},{"OBJECT_NAME":"OBJECT H","OBJECT_ID":"2026-023H","EPOCH":"2026-03-09T17:12:47.154816","MEAN_MOTION":15.23139098,"ECCENTRICITY":0.00239537,"INCLINATION":96.639,"RA_OF_ASC_NODE":144.1723,"ARG_OF_PERICENTER":117.6533,"MEAN_ANOMALY":242.7142,"EPHEMERIS_TYPE":0,"CLASSIFICATION_TYPE":"U","NORAD_CAT_ID":67681,"ELEMENT_SET_NO":999,"REV_AT_EPOCH":484,"BSTAR":0.00052586846,"MEAN_MOTION_DOT":0.00012465,"MEAN_MOTION_DDOT":0}]
